IRIDIUM 112             
1 41925U 17003J   25296.68803413 -.00000602  00000+0 -22205-3 0  9992
2 41925  86.4028 187.1031 0002242  86.0313 274.1139 14.34216905459373
IRIDIUM 111             
1 41926U 17003K   25296.67534314  .00000439  00000+0  14955-3 0  9992
2 41926  86.4033 187.1734 0002241  79.2993 280.8455 14.34212292459355
IRIDIUM 113             
1 42803U 17039A   25296.79485263  .00000504  00000+0  17298-3 0  9993
2 42803  86.3966  60.9663 0002232  93.1345 267.0106 14.34218302437308
IRIDIUM 123             
1 42804U 17039B   25296.90609734  .00000065  00000+0  16243-4 0  9990
2 42804  86.3925  92.4170 0001990  81.0900 279.0521 14.34216613436081
IRIDIUM 120             
1 42805U 17039C   25296.43966625  .00000537  00000+0  18476-3 0  9997
2 42805  86.3955  60.9278 0001668  94.5983 265.5403 14.34218010437247
IRIDIUM 115             
1 42806U 17039D   25296.42308905  .00000463  00000+0  13176-3 0  9998
2 42806  86.4492  61.0308 0001816  76.9141 283.2262 14.43280562440117
IRIDIUM 118             
1 42807U 17039E   25296.93781215 -.00000060  00000+0 -28447-4 0  9997
2 42807  86.3923  92.4031 0002175  91.7076 268.4369 14.34217007436086
IRIDIUM 117             
1 42808U 17039F   25296.95684006 -.00000152  00000+0 -61420-4 0  9990
2 42808  86.3922  92.3551 0002007  83.7645 276.3779 14.34216423436117
